ONEWEB-0564             
1 55801U 23029F   26062.68118920  .00000078  00000+0  15992-3 0  9999
2 55801  87.9172 295.5284 0001428  69.5938 290.5349 13.20771971147221
ONEWEB-0638             
1 55802U 23029G   26062.66547250  .00000175  00000+0  43646-3 0  9995
2 55802  87.8987 310.8140 0001042  75.1548 284.9697 13.14503026145531
ONEWEB-0639             
1 55803U 23029H   26062.72238007  .00000067  00000+0  13473-3 0  9995
2 55803  87.9238 325.9870 0002059 109.9692 250.1663 13.19727211144990
ONEWEB-0640             
1 55804U 23029J   26062.67497491  .00000247  00000+0  63304-3 0  9992
2 55804  87.8991 310.8027 0000958  96.9066 263.2172 13.14501136145553
ONEWEB-0641             
1 55805U 23029K   26062.71764549  .00000001  00000+0 -30975-4 0  9997
2 55805  87.9243 325.9746 0001753  84.4300 275.7033 13.19725638145001
ONEWEB-0642             
1 55806U 23029L   26062.78872553  .00000000  00000+0 -31664-4 0  9995
2 55806  87.9237 325.9755 0002170 101.0461 259.0915 13.19725757145009
ONEWEB-0643             
1 55807U 23029M   26062.72096676 -.00000074  00000+0 -23348-3 0  9995
2 55807  87.8990 310.7804 0002172  94.5170 265.6208 13.14501535145534
ONEWEB-0644             
1 55808U 23029N   26062.78399310  .00000022  00000+0  23387-4 0  9998
2 55808  87.9230 325.9834 0001915  91.0014 269.1338 13.19725411145008
ONEWEB-0645             
1 55809U 23029P   26062.73027787  .00000078  00000+0  16363-3 0  9996
2 55809  87.9233 325.9864 0001533  96.3513 263.7795 13.19724561144992
ONEWEB-0646             
1 55810U 23029Q   26062.74764898  .00000083  00000+0  17489-3 0  9996
2 55810  87.9240 325.9823 0001842  87.6671 272.4673 13.19726612144988
ONEWEB-0648             
1 55811U 23029R   26062.68924894  .00000107  00000+0  25295-3 0  9995
2 55811  87.9001 310.7513 0001745 114.7771 245.3541 13.14501000145539
ONEWEB-0649             
1 55812U 23029S   26062.69710218  .00000008  00000+0 -13348-4 0  9998
2 55812  87.9238 325.9895 0001611  90.3064 269.8254 13.19724434145017
ONEWEB-0650             
1 55813U 23029T   26062.76818510  .00000074  00000+0  15215-3 0  9997
2 55813  87.9235 325.9785 0001885  93.9345 266.2003 13.19726909144995
ONEWEB-0652             
1 55814U 23029U   26062.67022249  .00000241  00000+0  61568-3 0  9992
2 55814  87.8991 310.7710 0001623  74.6623 285.4686 13.14501583145501
ONEWEB-0653             
1 55815U 23029V   26062.73047969 -.00000016  00000+0 -77519-4 0  9992
2 55815  87.8996 310.7492 0001448  76.4007 283.7284 13.14502103145543
ONEWEB-0654             
1 55816U 23029W   26062.72572116 -.00000008  00000+0 -54947-4 0  9990
2 55816  87.8990 310.7498 0001591  67.5483 292.5815 13.14502063145567
ONEWEB-0656             
1 55817U 23029X   26062.59912054  .00000087  00000+0  18278-3 0  9996
2 55817  87.9183 295.5101 0001545  67.3568 292.7728 13.20771710147218
