[{"OBJECT_NAME":"ONEWEB-0564","OBJECT_ID":"2023-029F","EPOCH":"2026-03-03T16:20:54.746880","MEAN_MOTION":13.20771971,"ECCENTRICITY":0.0001428,"INCLINATION":87.9172,"RA_OF_ASC_NODE":295.5284,"ARG_OF_PERICENTER":69.5938,"MEAN_ANOMALY":290.5349,"EPHEMERIS_TYPE":0,"CLASSIFICATION_TYPE":"U","NORAD_CAT_ID":55801,"ELEMENT_SET_NO":999,"REV_AT_EPOCH":14722,"BSTAR":0.00015992,"MEAN_MOTION_DOT":7.8e-7,"MEAN_MOTION_DDOT":0},{"OBJECT_NAME":"ONEWEB-0638","OBJECT_ID":"2023-029G","EPOCH":"2026-03-03T15:58:16.824000","MEAN_MOTION":13.14503026,"ECCENTRICITY":0.0001042,"INCLINATION":87.8987,"RA_OF_ASC_NODE":310.814,"ARG_OF_PERICENTER":75.1548,"MEAN_ANOMALY":284.9697,"EPHEMERIS_TYPE":0,"CLASSIFICATION_TYPE":"U","NORAD_CAT_ID":55802,"ELEMENT_SET_NO":999,"REV_AT_EPOCH":14553,"BSTAR":0.00043646,"MEAN_MOTION_DOT":1.75e-6,"MEAN_MOTION_DDOT":0},{"OBJECT_NAME":"ONEWEB-0639","OBJECT_ID":"2023-029H","EPOCH":"2026-03-03T17:20:13.638048","MEAN_MOTION":13.19727211,"ECCENTRICITY":0.0002059,"INCLINATION":87.9238,"RA_OF_ASC_NODE":325.987,"ARG_OF_PERICENTER":109.9692,"MEAN_ANOMALY":250.1663,"EPHEMERIS_TYPE":0,"CLASSIFICATION_TYPE":"U","NORAD_CAT_ID":55803,"ELEMENT_SET_NO":999,"REV_AT_EPOCH":14499,"BSTAR":0.00013473,"MEAN_MOTION_DOT":6.7e-7,"MEAN_MOTION_DDOT":0},{"OBJECT_NAME":"ONEWEB-0640","OBJECT_ID":"2023-029J","EPOCH":"2026-03-03T16:11:57.832224","MEAN_MOTION":13.14501136,"ECCENTRICITY":9.58e-5,"INCLINATION":87.8991,"RA_OF_ASC_NODE":310.8027,"ARG_OF_PERICENTER":96.9066,"MEAN_ANOMALY":263.2172,"EPHEMERIS_TYPE":0,"CLASSIFICATION_TYPE":"U","NORAD_CAT_ID":55804,"ELEMENT_SET_NO":999,"REV_AT_EPOCH":14555,"BSTAR":0.00063304,"MEAN_MOTION_DOT":2.47e-6,"MEAN_MOTION_DDOT":0},{"OBJECT_NAME":"ONEWEB-0641","OBJECT_ID":"2023-029K","EPOCH":"2026-03-03T17:13:24.570336","MEAN_MOTION":13.19725638,"ECCENTRICITY":0.0001753,"INCLINATION":87.9243,"RA_OF_ASC_NODE":325.9746,"ARG_OF_PERICENTER":84.43,"MEAN_ANOMALY":275.7033,"EPHEMERIS_TYPE":0,"CLASSIFICATION_TYPE":"U","NORAD_CAT_ID":55805,"ELEMENT_SET_NO":999,"REV_AT_EPOCH":14500,"BSTAR":-3.0975e-5,"MEAN_MOTION_DOT":1.0e-8,"MEAN_MOTION_DDOT":0},{"OBJECT_NAME":"ONEWEB-0642","OBJECT_ID":"2023-029L","EPOCH":"2026-03-03T18:55:45.885792","MEAN_MOTION":13.19725757,"ECCENTRICITY":0.000217,"INCLINATION":87.9237,"RA_OF_ASC_NODE":325.9755,"ARG_OF_PERICENTER":101.0461,"MEAN_ANOMALY":259.0915,"EPHEMERIS_TYPE":0,"CLASSIFICATION_TYPE":"U","NORAD_CAT_ID":55806,"ELEMENT_SET_NO":999,"REV_AT_EPOCH":14500,"BSTAR":-3.1664e-5,"MEAN_MOTION_DOT":0,"MEAN_MOTION_DDOT":0},{"OBJECT_NAME":"ONEWEB-0643","OBJECT_ID":"2023-029M","EPOCH":"2026-03-03T17:18:11.528064","MEAN_MOTION":13.14501535,"ECCENTRICITY":0.0002172,"INCLINATION":87.899,"RA_OF_ASC_NODE":310.7804,"ARG_OF_PERICENTER":94.517,"MEAN_ANOMALY":265.6208,"EPHEMERIS_TYPE":0,"CLASSIFICATION_TYPE":"U","NORAD_CAT_ID":55807,"ELEMENT_SET_NO":999,"REV_AT_EPOCH":14553,"BSTAR":-0.00023348,"MEAN_MOTION_DOT":-7.4e-7,"MEAN_MOTION_DDOT":0},{"OBJECT_NAME":"ONEWEB-0644","OBJECT_ID":"2023-029N","EPOCH":"2026-03-03T18:48:57.003840","MEAN_MOTION":13.19725411,"ECCENTRICITY":0.0001915,"INCLINATION":87.923,"RA_OF_ASC_NODE":325.9834,"ARG_OF_PERICENTER":91.0014,"MEAN_ANOMALY":269.1338,"EPHEMERIS_TYPE":0,"CLASSIFICATION_TYPE":"U","NORAD_CAT_ID":55808,"ELEMENT_SET_NO":999,"REV_AT_EPOCH":14500,"BSTAR":2.3387e-5,"MEAN_MOTION_DOT":2.2e-7,"MEAN_MOTION_DDOT":0},{"OBJECT_NAME":"ONEWEB-0645","OBJECT_ID":"2023-029P","EPOCH":"2026-03-03T17:31:36.007968","MEAN_MOTION":13.19724561,"ECCENTRICITY":0.0001533,"INCLINATION":87.9233,"RA_OF_ASC_NODE":325.9864,"ARG_OF_PERICENTER":96.3513,"MEAN_ANOMALY":263.7795,"EPHEMERIS_TYPE":0,"CLASSIFICATION_TYPE":"U","NORAD_CAT_ID":55809,"ELEMENT_SET_NO":999,"REV_AT_EPOCH":14499,"BSTAR":0.00016363,"MEAN_MOTION_DOT":7.8e-7,"MEAN_MOTION_DDOT":0},{"OBJECT_NAME":"ONEWEB-0646","OBJECT_ID":"2023-029Q","EPOCH":"2026-03-03T17:56:36.871872","MEAN_MOTION":13.19726612,"ECCENTRICITY":0.0001842,"INCLINATION":87.924,"RA_OF_ASC_NODE":325.9823,"ARG_OF_PERICENTER":87.6671,"MEAN_ANOMALY":272.4673,"EPHEMERIS_TYPE":0,"CLASSIFICATION_TYPE":"U","NORAD_CAT_ID":55810,"ELEMENT_SET_NO":999,"REV_AT_EPOCH":14498,"BSTAR":0.00017489,"MEAN_MOTION_DOT":8.3e-7,"MEAN_MOTION_DDOT":0},{"OBJECT_NAME":"ONEWEB-0648","OBJECT_ID":"2023-029R","EPOCH":"2026-03-03T16:32:31.108416","MEAN_MOTION":13.14501,"ECCENTRICITY":0.0001745,"INCLINATION":87.9001,"RA_OF_ASC_NODE":310.7513,"ARG_OF_PERICENTER":114.7771,"MEAN_ANOMALY":245.3541,"EPHEMERIS_TYPE":0,"CLASSIFICATION_TYPE":"U","NORAD_CAT_ID":55811,"ELEMENT_SET_NO":999,"REV_AT_EPOCH":14553,"BSTAR":0.00025295,"MEAN_MOTION_DOT":1.07e-6,"MEAN_MOTION_DDOT":0},{"OBJECT_NAME":"ONEWEB-0649","OBJECT_ID":"2023-029S","EPOCH":"2026-03-03T16:43:49.628352","MEAN_MOTION":13.19724434,"ECCENTRICITY":0.0001611,"INCLINATION":87.9238,"RA_OF_ASC_NODE":325.9895,"ARG_OF_PERICENTER":90.3064,"MEAN_ANOMALY":269.8254,"EPHEMERIS_TYPE":0,"CLASSIFICATION_TYPE":"U","NORAD_CAT_ID":55812,"ELEMENT_SET_NO":999,"REV_AT_EPOCH":14501,"BSTAR":-1.3348e-5,"MEAN_MOTION_DOT":8.0e-8,"MEAN_MOTION_DDOT":0},{"OBJECT_NAME":"ONEWEB-0650","OBJECT_ID":"2023-029T","EPOCH":"2026-03-03T18:26:11.192640","MEAN_MOTION":13.19726909,"ECCENTRICITY":0.0001885,"INCLINATION":87.9235,"RA_OF_ASC_NODE":325.9785,"ARG_OF_PERICENTER":93.9345,"MEAN_ANOMALY":266.2003,"EPHEMERIS_TYPE":0,"CLASSIFICATION_TYPE":"U","NORAD_CAT_ID":55813,"ELEMENT_SET_NO":999,"REV_AT_EPOCH":14499,"BSTAR":0.00015215,"MEAN_MOTION_DOT":7.4e-7,"MEAN_MOTION_DDOT":0},{"OBJECT_NAME":"ONEWEB-0652","OBJECT_ID":"2023-029U","EPOCH":"2026-03-03T16:05:07.223136","MEAN_MOTION":13.14501583,"ECCENTRICITY":0.0001623,"INCLINATION":87.8991,"RA_OF_ASC_NODE":310.771,"ARG_OF_PERICENTER":74.6623,"MEAN_ANOMALY":285.4686,"EPHEMERIS_TYPE":0,"CLASSIFICATION_TYPE":"U","NORAD_CAT_ID":55814,"ELEMENT_SET_NO":999,"REV_AT_EPOCH":14550,"BSTAR":0.00061568,"MEAN_MOTION_DOT":2.41e-6,"MEAN_MOTION_DDOT":0},{"OBJECT_NAME":"ONEWEB-0653","OBJECT_ID":"2023-029V","EPOCH":"2026-03-03T17:31:53.445216","MEAN_MOTION":13.14502103,"ECCENTRICITY":0.0001448,"INCLINATION":87.8996,"RA_OF_ASC_NODE":310.7492,"ARG_OF_PERICENTER":76.4007,"MEAN_ANOMALY":283.7284,"EPHEMERIS_TYPE":0,"CLASSIFICATION_TYPE":"U","NORAD_CAT_ID":55815,"ELEMENT_SET_NO":999,"REV_AT_EPOCH":14554,"BSTAR":-7.7519e-5,"MEAN_MOTION_DOT":-1.6e-7,"MEAN_MOTION_DDOT":0},{"OBJECT_NAME":"ONEWEB-0654","OBJECT_ID":"2023-029W","EPOCH":"2026-03-03T17:25:02.308224","MEAN_MOTION":13.14502063,"ECCENTRICITY":0.0001591,"INCLINATION":87.899,"RA_OF_ASC_NODE":310.7498,"ARG_OF_PERICENTER":67.5483,"MEAN_ANOMALY":292.5815,"EPHEMERIS_TYPE":0,"CLASSIFICATION_TYPE":"U","NORAD_CAT_ID":55816,"ELEMENT_SET_NO":999,"REV_AT_EPOCH":14556,"BSTAR":-5.4947e-5,"MEAN_MOTION_DOT":-8.0e-8,"MEAN_MOTION_DDOT":0},{"OBJECT_NAME":"ONEWEB-0656","OBJECT_ID":"2023-029X","EPOCH":"2026-03-03T14:22:44.014656","MEAN_MOTION":13.2077171,"ECCENTRICITY":0.0001545,"INCLINATION":87.9183,"RA_OF_ASC_NODE":295.5101,"ARG_OF_PERICENTER":67.3568,"MEAN_ANOMALY":292.7728,"EPHEMERIS_TYPE":0,"CLASSIFICATION_TYPE":"U","NORAD_CAT_ID":55817,"ELEMENT_SET_NO":999,"REV_AT_EPOCH":14721,"BSTAR":0.00018278,"MEAN_MOTION_DOT":8.7e-7,"MEAN_MOTION_DDOT":0}]
